NORAD_CAT_ID,OBJECT_NAME,OBJECT_TYPE,EPOCH,MEAN_MOTION,ECCENTRICITY,INCLINATION,RA_OF_ASC_NODE,ARG_OF_PERICENTER,MEAN_ANOMALY,BSTAR,MEAN_MOTION_DOT,MEAN_MOTION_DDOT,TLE_LINE0,TLE_LINE1,TLE_LINE2,SEMIMAJOR_AXIS,PERIOD,APOGEE,PERIGEE,DECAYED
55933.0,STARLINK-5852,PAYLOAD,2023-10-20 12:15:36,14.98327372,0.0002685,69.9999,321.1065,263.9644,96.1209,-3.6203e-05,-5.25e-06,0.0,0 STARLINK-5852,1 55933U 23037V   23293.51084468 -.00000525  00000-0 -36203-4 0  9997,2 55933  69.9999 321.1065 0002685 263.9644  96.1209 14.98327372 33482,6950.201,96.107,573.932,570.2,0.0
55933.0,STARLINK-5852,PAYLOAD,2023-10-21 12:17:38,14.98327877,0.0001936,70.0005,318.5811,277.705,82.3889,-1.9241e-05,-3.22e-06,0.0,0 STARLINK-5852,1 55933U 23037V   23294.51224691 -.00000322  00000-0 -19241-4 0  9990,2 55933  70.0005 318.5811 0001936 277.7050  82.3889 14.98327877 33979,6950.199,96.107,573.41,570.719,0.0
55933.0,STARLINK-5852,PAYLOAD,2023-10-21 18:42:10,14.98328054,0.0002116,70.0009,317.9073,271.7774,88.3142,-8.3263e-06,-1.92e-06,0.0,0 STARLINK-5852,1 55933U 23037V   23294.77928569 -.00000192  00000-0 -83263-5 0  9994,2 55933  70.0009 317.9073 0002116 271.7774  88.3142 14.98328054 33677,6950.199,96.107,573.535,570.593,0.0
55933.0,STARLINK-5852,PAYLOAD,2023-10-22 04:18:59,14.98316992,0.0002308,70.0007,316.8987,261.9024,98.1873,-2.4096e-05,-3.8e-06,0.0,0 STARLINK-5852,1 55933U 23037V   23295.17985177 -.00000380  00000-0 -24096-4 0  9994,2 55933  70.0007 316.8987 0002308 261.9024  98.1873 14.98316992 34072,6950.233,96.108,573.702,570.494,0.0
55933.0,STARLINK-5852,PAYLOAD,2023-10-22 12:19:39,14.98318858,0.0001898,70.0002,316.0559,251.3024,108.7929,-2.9017e-05,-4.39e-06,0.0,0 STARLINK-5852,1 55933U 23037V   23295.51365207 -.00000439  00000-0 -29017-4 0  9991,2 55933  70.0002 316.0559 0001898 251.3024 108.7929 14.98318858 33780,6950.227,96.108,573.412,570.773,0.0
55933.0,STARLINK-5852,PAYLOAD,2023-10-22 18:44:11,14.98315353,0.0002066,70.0003,315.3829,260.9647,99.1279,0.00021507,2.473e-05,0.0,0 STARLINK-5852,1 55933U 23037V   23295.78068964  .00002473  00000-0  21507-3 0  9993,2 55933  70.0003 315.3829 0002066 260.9647  99.1279 14.98315353 33821,6950.238,96.108,573.539,570.667,0.0
55933.0,STARLINK-5852,PAYLOAD,2023-10-23 04:20:59,14.98328087,0.0002766,69.9989,314.3722,273.5081,86.5762,3.6125e-05,3.38e-06,0.0,0 STARLINK-5852,1 55933U 23037V   23296.18124409  .00000338  00000-0  36125-4 0  9996,2 55933  69.9989 314.3722 0002766 273.5081  86.5762 14.98328087 34221,6950.199,96.107,573.986,570.141,0.0
55933.0,STARLINK-5852,PAYLOAD,2023-10-23 18:46:14,14.9823783,0.0002084,69.9993,312.8567,277.1703,82.9219,0.0015513,0.00018421,0.0,0 STARLINK-5852,1 55933U 23037V   23296.78211193  .00018421  00000-0  15513-2 0  9997,2 55933  69.9993 312.8567 0002084 277.1703  82.9219 14.98237830 34312,6950.478,96.113,573.791,570.894,0.0
55933.0,STARLINK-5852,PAYLOAD,2023-10-24 04:23:00,14.98327145,0.0002845,69.9985,311.8474,271.2168,88.8665,1.2777e-06,-7.8e-07,0.0,0 STARLINK-5852,1 55933U 23037V   23297.18264571 -.00000078  00000-0  12777-5 0  9992,2 55933  69.9985 311.8474 0002845 271.2168  88.8665 14.98327145 34379,6950.202,96.107,574.044,570.089,0.0
55933.0,STARLINK-5852,PAYLOAD,2023-10-24 10:47:32,14.983271,0.0002617,69.9989,311.1735,265.2329,94.8532,3.1255e-05,2.8e-06,0.0,0 STARLINK-5852,1 55933U 23037V   23297.44968542  .00000280  00000-0  31255-4 0  9995,2 55933  69.9989 311.1735 0002617 265.2329  94.8532 14.98327100 34073,6950.202,96.107,573.886,570.248,0.0
55933.0,STARLINK-5852,PAYLOAD,2023-10-25 10:49:33,14.98327745,0.0002687,69.999,308.6497,272.2722,87.813,0.0001536,1.74e-05,0.0,0 STARLINK-5852,1 55933U 23037V   23298.45108128  .00001740  00000-0  15360-3 0  9993,2 55933  69.9990 308.6497 0002687 272.2722  87.8130 14.98327745 34568,6950.2,96.107,573.932,570.197,0.0
55933.0,STARLINK-5852,PAYLOAD,2023-10-26 10:51:34,14.98326241,0.0002526,69.9992,306.1241,267.1407,92.9463,7.3283e-05,7.81e-06,0.0,0 STARLINK-5852,1 55933U 23037V   23299.45248279  .00000781  00000-0  73283-4 0  9999,2 55933  69.9992 306.1241 0002526 267.1407  92.9463 14.98326241 34718,6950.205,96.107,573.825,570.314,0.0
55933.0,STARLINK-5852,PAYLOAD,2023-10-26 17:16:06,14.98331179,0.0002709,69.9993,305.4502,277.045,83.0401,2.3437e-05,1.87e-06,0.0,0 STARLINK-5852,1 55933U 23037V   23299.71952086  .00000187  00000-0  23437-4 0  9992,2 55933  69.9993 305.4502 0002709 277.0450  83.0401 14.98331179 34418,6950.189,96.107,573.937,570.171,0.0
55933.0,STARLINK-5852,PAYLOAD,2023-10-27 10:53:34,14.98347042,0.0002429,69.9991,303.5988,268.7076,91.3804,-0.00018517,-2.303e-05,0.0,0 STARLINK-5852,1 55933U 23037V   23300.45387354 -.00002303  00000-0 -18517-3 0  9992,2 55933  69.9991 303.5988 0002429 268.7076  91.3804 14.98347042 34867,6950.14,96.106,573.693,570.317,0.0
55933.0,STARLINK-5852,PAYLOAD,2023-10-27 17:18:07,14.98331319,0.0002435,69.9998,302.9251,278.2634,81.8248,-2.5243e-05,-3.94e-06,0.0,0 STARLINK-5852,1 55933U 23037V   23300.72092031 -.00000394  00000-0 -25243-4 0  9990,2 55933  69.9998 302.9251 0002435 278.2634  81.8248 14.98331319 34904,6950.189,96.107,573.746,570.361,0.0
55933.0,STARLINK-5852,PAYLOAD,2023-10-28 10:55:35,14.98345403,0.0002451,69.9991,301.0745,265.0054,95.0825,-0.00033624,-4.104e-05,0.0,0 STARLINK-5852,1 55933U 23037V   23301.45527725 -.00004104  00000-0 -33624-3 0  9998,2 55933  69.9991 301.0745 0002451 265.0054  95.0825 14.98345403 34674,6950.145,96.106,573.714,570.307,0.0
55933.0,STARLINK-5852,PAYLOAD,2023-10-28 17:20:08,14.9832005,0.0002706,69.9994,300.4013,253.2813,106.8049,0.00011517,1.281e-05,0.0,0 STARLINK-5852,1 55933U 23037V   23301.72232266  .00001281  00000-0  11517-3 0  9999,2 55933  69.9994 300.4013 0002706 253.2813 106.8049 14.98320050 35056,6950.224,96.108,573.969,570.208,0.0
55933.0,STARLINK-5852,PAYLOAD,2023-10-29 04:33:04,14.98330045,0.0002883,69.9988,299.2228,267.5907,92.4922,6.7823e-06,-1.2e-07,0.0,0 STARLINK-5852,1 55933U 23037V   23302.18963880 -.00000012  00000-0  67823-5 0  9998,2 55933  69.9988 299.2228 0002883 267.5907  92.4922 14.98330045 35123,6950.193,96.107,574.061,570.054,0.0
55933.0,STARLINK-5852,PAYLOAD,2023-10-29 09:21:28,14.98325542,0.0002988,69.9987,298.7176,267.9543,92.1274,0.00012881,1.444e-05,0.0,0 STARLINK-5852,1 55933U 23037V   23302.38991845  .00001444  00000-0  12881-3 0  9993,2 55933  69.9987 298.7176 0002988 267.9543  92.1274 14.98325542 34812,6950.207,96.107,574.148,569.995,0.0
55933.0,STARLINK-5852,PAYLOAD,2023-10-29 17:22:09,14.98330266,0.0002774,69.999,297.8749,275.4989,84.5854,-4.5037e-05,-6.3e-06,0.0,0 STARLINK-5852,1 55933U 23037V   23302.72372014 -.00000630  00000-0 -45037-4 0  9990,2 55933  69.9990 297.8749 0002774 275.4989  84.5854 14.98330266 34866,6950.192,96.107,573.985,570.129,0.0
55933.0,STARLINK-5852,PAYLOAD,2023-10-30 04:35:06,14.98325637,0.0002831,69.9986,296.6969,270.1115,89.972,1.4479e-05,8e-07,0.0,0 STARLINK-5852,1 55933U 23037V   23303.19104188  .00000080  00000-0  14479-4 0  9990,2 55933  69.9986 296.6969 0002831 270.1115  89.9720 14.98325637 35272,6950.206,96.107,574.039,570.104,0.0
55933.0,STARLINK-5852,PAYLOAD,2023-10-30 17:24:10,14.98326758,0.000277,69.999,295.3497,270.4543,89.6299,1.4653e-05,8.2e-07,0.0,0 STARLINK-5852,1 55933U 23037V   23303.72512191  .00000082  00000-0  14653-4 0  9992,2 55933  69.9990 295.3497 0002770 270.4543  89.6299 14.98326758 35014,6950.203,96.107,573.993,570.143,0.0
55933.0,STARLINK-5852,PAYLOAD,2023-10-31 04:37:07,14.98325019,0.0002482,69.9999,294.1712,273.9914,86.0962,-5.2988e-05,-7.25e-06,0.0,0 STARLINK-5852,1 55933U 23037V   23304.19244566 -.00000725  00000-0 -52988-4 0  9991,2 55933  69.9999 294.1712 0002482 273.9914  86.0962 14.98325019 35422,6950.208,96.107,573.798,570.348,0.0
55933.0,STARLINK-5852,PAYLOAD,2023-10-31 09:25:31,14.98322456,0.0002477,69.9996,293.6663,266.5094,93.5782,6.5282e-05,6.86e-06,0.0,0 STARLINK-5852,1 55933U 23037V   23304.39272414  .00000686  00000-0  65282-4 0  9991,2 55933  69.9996 293.6663 0002477 266.5094  93.5782 14.98322456 35110,6950.216,96.107,573.803,570.36,0.0
55933.0,STARLINK-5852,PAYLOAD,2023-11-01 04:39:07,14.98334857,0.0002262,70.0001,291.6471,265.539,94.5511,-0.00013905,-1.752e-05,0.0,0 STARLINK-5852,1 55933U 23037V   23305.19384144 -.00001752  00000-0 -13905-3 0  9995,2 55933  70.0001 291.6471 0002262 265.5390  94.5511 14.98334857 35574,6950.178,96.107,573.615,570.471,0.0
55933.0,STARLINK-5852,PAYLOAD,2023-11-01 09:27:32,14.98309788,0.0002138,70.0001,291.1422,257.1568,102.9352,0.00032118,3.739e-05,0.0,0 STARLINK-5852,1 55933U 23037V   23305.39412691  .00003739  00000-0  32118-3 0  9998,2 55933  70.0001 291.1422 0002138 257.1568 102.9352 14.98309788 35607,6950.255,96.108,573.606,570.634,0.0
55933.0,STARLINK-5852,PAYLOAD,2023-11-01 15:52:03,14.98352793,0.0002271,70.0002,290.4681,276.8836,83.2064,-0.00037643,-4.584e-05,0.0,0 STARLINK-5852,1 55933U 23037V   23305.66115627 -.00004584  00000-0 -37643-3 0  9996,2 55933  70.0002 290.4681 0002271 276.8836  83.2064 14.98352793 35640,6950.122,96.106,573.566,570.409,0.0
55933.0,STARLINK-5852,PAYLOAD,2023-11-01 22:16:36,14.98340217,0.0002203,69.9999,289.7944,276.496,83.5948,-9.672e-05,-1.247e-05,0.0,0 STARLINK-5852,1 55933U 23037V   23305.92819921 -.00001247  00000-0 -96720-4 0  9998,2 55933  69.9999 289.7944 0002203 276.4960  83.5948 14.98340217 35343,6950.161,96.106,573.557,570.495,0.0
55933.0,STARLINK-5852,PAYLOAD,2023-11-02 09:29:32,14.98331544,0.000232,69.9998,288.6164,267.8883,92.2011,7.312e-05,7.8e-06,0.0,0 STARLINK-5852,1 55933U 23037V   23306.39551768  .00000780  00000-0  73120-4 0  9990,2 55933  69.9998 288.6164 0002320 267.8883  92.2011 14.98331544 35758,6950.188,96.107,573.666,570.441,0.0
55933.0,STARLINK-5852,PAYLOAD,2023-11-02 15:54:04,14.98351528,0.0002302,69.9998,287.9432,280.1026,79.9874,-0.00041351,-5.026e-05,0.0,0 STARLINK-5852,1 55933U 23037V   23306.66255697 -.00005026  00000-0 -41351-3 0  9992,2 55933  69.9998 287.9432 0002302 280.1026  79.9874 14.98351528 35455,6950.126,96.106,573.591,570.391,0.0
